NORAD_CAT_ID,OBJECT_NAME,OBJECT_TYPE,EPOCH,MEAN_MOTION,ECCENTRICITY,INCLINATION,RA_OF_ASC_NODE,ARG_OF_PERICENTER,MEAN_ANOMALY,BSTAR,MEAN_MOTION_DOT,MEAN_MOTION_DDOT,TLE_LINE0,TLE_LINE1,TLE_LINE2,SEMIMAJOR_AXIS,PERIOD,APOGEE,PERIGEE,DECAYED
52457.0,STARLINK-3899,PAYLOAD,2023-11-16 03:10:57,15.0884206,0.00016,53.2174,260.475,107.0134,253.1034,5.4357e-05,5.77e-06,0.0,0 STARLINK-3899,1 52457U 22049G   23320.13261268  .00000577  00000-0  54357-4 0  9996,2 52457  53.2174 260.4750 0001600 107.0134 253.1034 15.08842060 84772,6917.874,95.437,540.846,538.632,0.0
52457.0,STARLINK-3899,PAYLOAD,2023-11-17 06:12:31,15.08844661,0.000152,53.2179,255.4214,97.5419,262.5746,-4.0901e-05,-9.39e-06,0.0,0 STARLINK-3899,1 52457U 22049G   23321.25869275 -.00000939  00000-0 -40901-4 0  9996,2 52457  53.2179 255.4214 0001520  97.5419 262.5746 15.08844661 84948,6917.866,95.437,540.783,538.68,0.0
52457.0,STARLINK-3899,PAYLOAD,2023-11-17 12:34:04,15.08833564,0.0001423,53.2169,254.2311,100.2954,259.8198,7.793e-05,9.52e-06,0.0,0 STARLINK-3899,1 52457U 22049G   23321.52366230  .00000952  00000-0  77930-4 0  9994,2 52457  53.2169 254.2311 0001423 100.2954 259.8198 15.08833564 84827,6917.9,95.438,540.749,538.781,0.0
52457.0,STARLINK-3899,PAYLOAD,2023-11-18 02:52:33,15.08792902,0.0001704,53.2168,251.5551,97.1087,263.0099,0.00075332,0.00011706,0.0,0 STARLINK-3899,1 52457U 22049G   23322.11983053  .00011706  00000-0  75332-3 0  9990,2 52457  53.2168 251.5551 0001704  97.1087 263.0099 15.08792902 85070,6918.024,95.441,541.068,538.711,0.0
52457.0,STARLINK-3899,PAYLOAD,2023-11-18 12:24:51,15.08841346,0.0001473,53.2167,249.7705,85.1846,274.9315,0.00012145,1.646e-05,0.0,0 STARLINK-3899,1 52457U 22049G   23322.51725885  .00001646  00000-0  12145-3 0  9996,2 52457  53.2167 249.7705 0001473  85.1846 274.9315 15.08841346 85138,6917.876,95.437,540.76,538.722,0.0
52457.0,STARLINK-3899,PAYLOAD,2023-11-19 02:43:20,15.08794117,0.0001896,53.2178,247.0944,92.73,267.3909,0.00076033,0.00011818,0.0,0 STARLINK-3899,1 52457U 22049G   23323.11342997  .00011818  00000-0  76033-3 0  9990,2 52457  53.2178 247.0944 0001896  92.7300 267.3909 15.08794117 85222,6918.021,95.44,541.197,538.574,0.0
52457.0,STARLINK-3899,PAYLOAD,2023-11-19 12:15:38,15.08829197,0.0002061,53.2187,245.3092,82.5545,277.5681,0.00021713,3.168e-05,0.0,0 STARLINK-3899,1 52457U 22049G   23323.51086628  .00003168  00000-0  21713-3 0  9994,2 52457  53.2187 245.3092 0002061  82.5545 277.5681 15.08829197 85126,6917.913,95.438,541.204,538.353,0.0
52457.0,STARLINK-3899,PAYLOAD,2023-11-20 02:34:06,15.0884599,0.0001545,53.2175,242.6335,85.0283,275.0886,6.322e-05,7.18e-06,0.0,0 STARLINK-3899,1 52457U 22049G   23324.10701650  .00000718  00000-0  63220-4 0  9997,2 52457  53.2175 242.6335 0001545  85.0283 275.0886 15.08845990 85372,6917.862,95.437,540.796,538.658,0.0
52457.0,STARLINK-3899,PAYLOAD,2023-11-20 12:06:24,15.08847517,0.0001554,53.2173,240.8497,85.2615,274.8554,7.0619e-05,8.36e-06,0.0,0 STARLINK-3899,1 52457U 22049G   23324.50445449  .00000836  00000-0  70619-4 0  9993,2 52457  53.2173 240.8497 0001554  85.2615 274.8554 15.08847517 85275,6917.857,95.437,540.797,538.647,0.0
52457.0,STARLINK-3899,PAYLOAD,2023-11-21 04:00:15,15.08854572,0.0001483,53.2168,237.8753,94.4234,265.6927,9.8889e-05,1.287e-05,0.0,0 STARLINK-3899,1 52457U 22049G   23325.16684680  .00001287  00000-0  98889-4 0  9998,2 52457  53.2168 237.8753 0001483  94.4234 265.6927 15.08854572 85530,6917.836,95.437,540.727,538.675,0.0
52457.0,STARLINK-3899,PAYLOAD,2023-11-21 21:29:31,15.08838703,0.0001348,53.2157,234.6063,96.2019,263.9127,4.7433e-05,4.67e-06,0.0,0 STARLINK-3899,1 52457U 22049G   23325.89549933  .00000467  00000-0  47433-4 0  9997,2 52457  53.2157 234.6063 0001348  96.2019 263.9127 15.08838703 85483,6917.884,95.438,540.682,538.817,0.0
52457.0,STARLINK-3899,PAYLOAD,2023-11-22 03:51:03,15.08849684,0.0001503,53.2163,233.414,101.4723,258.6437,0.00013432,1.851e-05,0.0,0 STARLINK-3899,1 52457U 22049G   23326.16045194  .00001851  00000-0  13432-3 0  9997,2 52457  53.2163 233.4140 0001503 101.4723 258.6437 15.08849684 85684,6917.851,95.437,540.756,538.676,0.0
52457.0,STARLINK-3899,PAYLOAD,2023-11-22 21:20:17,15.08847306,0.000171,53.2166,230.1416,113.9424,246.1747,9.6144e-05,1.243e-05,0.0,0 STARLINK-3899,1 52457U 22049G   23326.88909171  .00001243  00000-0  96144-4 0  9997,2 52457  53.2166 230.1416 0001710 113.9424 246.1747 15.08847306 85633,6917.858,95.437,540.906,538.54,0.0
52457.0,STARLINK-3899,PAYLOAD,2023-11-23 00:31:03,15.08850702,0.0001693,53.217,229.546,97.1101,263.0084,0.00015033,2.106e-05,0.0,0 STARLINK-3899,1 52457U 22049G   23327.02156956  .00002106  00000-0  15033-3 0  9995,2 52457  53.2170 229.5460 0001693  97.1101 263.0084 15.08850702 85652,6917.848,95.437,540.884,538.541,0.0
52457.0,STARLINK-3899,PAYLOAD,2023-11-23 16:24:56,15.0882959,0.000148,53.2159,226.5737,97.0958,263.0202,2.4712e-05,1.05e-06,0.0,0 STARLINK-3899,1 52457U 22049G   23327.68398303  .00000105  00000-0  24712-4 0  9993,2 52457  53.2159 226.5737 0001480  97.0958 263.0202 15.08829590 85918,6917.912,95.438,540.801,538.753,0.0
52457.0,STARLINK-3899,PAYLOAD,2023-11-23 21:11:05,15.08833278,0.0001701,53.2158,225.6812,120.6382,239.4778,-6.1678e-05,-1.269e-05,0.0,0 STARLINK-3899,1 52457U 22049G   23327.88269940 -.00001269  00000-0 -61678-4 0  9995,2 52457  53.2158 225.6812 0001701 120.6382 239.4778 15.08833278 85789,6917.901,95.438,540.943,538.589,0.0
52457.0,STARLINK-3899,PAYLOAD,2023-11-23 22:46:28,15.08832914,0.0001463,53.2158,225.3841,112.2832,247.8316,-4.9748e-05,-1.079e-05,0.0,0 STARLINK-3899,1 52457U 22049G   23327.94894026 -.00001079  00000-0 -49748-4 0  9994,2 52457  53.2158 225.3841 0001463 112.2832 247.8316 15.08832914 85798,6917.902,95.438,540.779,538.755,0.0
52457.0,STARLINK-3899,PAYLOAD,2023-11-24 22:37:15,15.08836519,0.0001366,53.2161,220.9257,100.8858,259.2288,6.1898e-05,6.97e-06,0.0,0 STARLINK-3899,1 52457U 22049G   23328.94254555  .00000697  00000-0  61898-4 0  9995,2 52457  53.2161 220.9257 0001366 100.8858 259.2288 15.08836519 85944,6917.891,95.438,540.701,538.811,0.0
52457.0,STARLINK-3899,PAYLOAD,2023-11-25 22:28:02,15.08865258,0.0001408,53.2151,216.4643,109.2796,250.8348,0.00073801,0.00011485,0.0,0 STARLINK-3899,1 52457U 22049G   23329.93613920  .00011485  00000-0  73801-3 0  9993,2 52457  53.2151 216.4643 0001408 109.2796 250.8348 15.08865258 86096,6917.803,95.436,540.642,538.694,0.0
52457.0,STARLINK-3899,PAYLOAD,2023-11-26 01:38:48,15.08873292,0.0001344,53.2157,215.8704,93.4522,266.6624,0.00085085,0.00013292,0.0,0 STARLINK-3899,1 52457U 22049G   23330.06861442  .00013292  00000-0  85085-3 0  9998,2 52457  53.2157 215.8704 0001344  93.4522 266.6624 15.08873292 86272,6917.779,95.435,540.573,538.714,0.0
52457.0,STARLINK-3899,PAYLOAD,2023-11-26 22:18:50,15.08830627,0.0001435,53.2153,212.0064,70.745,289.3697,-0.00022007,-3.788e-05,0.0,0 STARLINK-3899,1 52457U 22049G   23330.92974765 -.00003788  00000-0 -22007-3 0  9992,2 52457  53.2153 212.0064 0001435  70.7450 289.3697 15.08830627 86249,6917.909,95.438,540.767,538.781,0.0
52457.0,STARLINK-3899,PAYLOAD,2023-11-26 23:54:13,15.08828641,0.0001506,53.2161,211.7077,70.3207,289.7948,-0.00020558,-3.557e-05,0.0,0 STARLINK-3899,1 52457U 22049G   23330.99598889 -.00003557  00000-0 -20558-3 0  9991,2 52457  53.2161 211.7077 0001506  70.3207 289.7948 15.08828641 86418,6917.915,95.438,540.822,538.738,0.0
52457.0,STARLINK-3899,PAYLOAD,2023-11-27 22:09:37,15.08837484,0.0001662,53.2157,207.5493,68.8976,291.2194,0.0002181,3.185e-05,0.0,0 STARLINK-3899,1 52457U 22049G   23331.92335125  .00003185  00000-0  21810-3 0  9994,2 52457  53.2157 207.5493 0001662  68.8976 291.2194 15.08837484 86399,6917.888,95.438,540.903,538.603,0.0
52457.0,STARLINK-3899,PAYLOAD,2023-11-28 22:00:24,15.08852322,0.0001437,53.2155,203.0839,70.5598,289.555,0.00046717,7.157e-05,0.0,0 STARLINK-3899,1 52457U 22049G   23332.91694924  .00007157  00000-0  46717-3 0  9995,2 52457  53.2155 203.0839 0001437  70.5598 289.5550 15.08852322 86543,6917.843,95.437,540.702,538.714,0.0
52457.0,STARLINK-3899,PAYLOAD,2023-11-29 20:15:48,15.08847293,0.0001511,53.2151,198.9211,71.6141,288.5015,0.00014096,1.957e-05,0.0,0 STARLINK-3899,1 52457U 22049G   23333.84430803  .00001957  00000-0  14096-3 0  9999,2 52457  53.2151 198.9211 0001511  71.6141 288.5015 15.08847293 86843,6917.858,95.437,540.768,538.678,0.0
52457.0,STARLINK-3899,PAYLOAD,2023-12-01 00:52:44,15.08842886,0.0001445,53.2161,193.5643,83.7159,276.3998,-0.00021291,-3.675e-05,0.0,0 STARLINK-3899,1 52457U 22049G   23335.03662775 -.00003675  00000-0 -21291-3 0  9993,2 52457  53.2161 193.5643 0001445  83.7159 276.3998 15.08842886 87022,6917.872,95.437,540.736,538.737,0.0
52457.0,STARLINK-3899,PAYLOAD,2023-12-01 19:57:22,15.0884534,0.0001462,53.2154,189.9959,84.5976,275.5183,0.00013815,1.912e-05,0.0,0 STARLINK-3899,1 52457U 22049G   23335.83150702  .00001912  00000-0  13815-3 0  9996,2 52457  53.2154 189.9959 0001462  84.5976 275.5183 15.08845340 86987,6917.864,95.437,540.74,538.718,0.0
52457.0,STARLINK-3899,PAYLOAD,2023-12-02 00:43:31,15.08850036,0.0001484,53.2155,189.1034,86.7051,273.4111,0.00016837,2.393e-05,0.0,0 STARLINK-3899,1 52457U 22049G   23336.03022426  .00002393  00000-0  16837-3 0  9991,2 52457  53.2155 189.1034 0001484  86.7051 273.4111 15.08850036 87174,6917.85,95.437,540.741,538.688,0.0
52457.0,STARLINK-3899,PAYLOAD,2023-12-02 19:48:09,15.08839259,0.0001651,53.2159,185.5326,106.1687,253.9487,2.3949e-05,9.3e-07,0.0,0 STARLINK-3899,1 52457U 22049G   23336.82510789  .00000093  00000-0  23949-4 0  9990,2 52457  53.2159 185.5326 0001651 106.1687 253.9487 15.08839259 87296,6917.883,95.438,540.89,538.606,0.0
52457.0,STARLINK-3899,PAYLOAD,2023-12-03 00:34:19,15.08832181,0.0001589,53.2156,184.6438,98.8529,261.2643,-4.506e-05,-1.005e-05,0.0,0 STARLINK-3899,1 52457U 22049G   23337.02383214 -.00001005  00000-0 -45060-4 0  9998,2 52457  53.2156 184.6438 0001589  98.8529 261.2643 15.08832181 87326,6917.904,95.438,540.869,538.67,0.0
